IRIDIUM 921 [-]         
1 24873U 97034E   24038.35857468  .00027870  00000+0  91994-3 0  9998
2 24873  86.3877 352.4329 0007342  57.3169 302.8787 15.31254686455392
IRIDIUM 26 [-]          
1 24903U 97043A   24038.49256535  .00000681  00000+0  22692-3 0  9995
2 24903  86.3989 318.6192 0001975  81.7629 278.3792 14.36195231386042
IRIDIUM 22 [-]          
1 24907U 97043E   24037.81993892  .00000587  00000+0  19895-3 0  9994
2 24907  86.3996 322.0331 0002220  85.2509 274.8941 14.35091560385560
DUMMY MASS 1 [-]        
1 24925U 97048A   24038.43230908  .00000817  00000+0  90171-4 0  9993
2 24925  86.3372   4.3812 0009228  99.5197 260.7070 14.86033787431728
DUMMY MASS 2 [-]        
1 24926U 97048B   24038.44773579  .00000804  00000+0  89191-4 0  9997
2 24926  86.3370   5.8931 0009923 108.2032 252.0273 14.85793579431510
IRIDIUM 29 [-]          
1 24944U 97051A   24037.93401434  .00000552  00000+0  18514-3 0  9992
2 24944  86.3997 351.9154 0002464  85.2844 274.8634 14.35544602382272
IRIDIUM 33 [-]          
1 24946U 97051C   24038.39802315  .00000537  00000+0  18472-3 0  9994
2 24946  86.3912 350.9838 0005774 252.6747 107.3817 14.34250259381675
IRIDIUM 28 [-]          
1 24948U 97051E   24038.37293900  .00000752  00000+0  24995-3 0  9994
2 24948  86.4004 349.5334 0001774  83.8525 276.2874 14.36492234382717
